QIANFAN-1               
1 60379U 24140A   25213.82024698  .00000136  00000+0  19207-3 0  9999
2 60379  88.9843 313.0178 0016100 233.7515 126.2149 13.50955361 49392
QIANFAN-2               
1 60380U 24140B   25213.55277263  .00000142  00000+0  20163-3 0  9999
2 60380  88.9829 312.9031 0012332 202.7092 157.3515 13.50961845 49423
QIANFAN-3               
1 60381U 24140C   25213.78313616  .00000149  00000+0  21277-3 0  9992
2 60381  88.9822 313.0218 0013022 215.8847 144.1430 13.50960033 49367
QIANFAN-4               
1 60382U 24140D   25213.83260174  .00000137  00000+0  19325-3 0  9997
2 60382  88.9847 312.8811 0012496 204.7573 155.2979 13.50955510 49486
QIANFAN-5               
1 60383U 24140E   25213.80795194  .00000125  00000+0  17548-3 0  9992
2 60383  88.9822 313.0451 0013909 228.6254 131.3701 13.50958547 49351
QIANFAN-6               
1 60384U 24140F   25213.82842893  .00000128  00000+0  18052-3 0  9998
2 60384  88.9848 312.7538 0012390 211.0420 149.0000 13.50955053 49555
QIANFAN-7               
1 60385U 24140G   25213.77629325  .00000620  00000+0  24604-3 0  9993
2 60385  88.9849 309.3261 0017462 116.0586 244.2408 14.27496806 51424
QIANFAN-8               
1 60386U 24140H   25213.83675104  .00000132  00000+0  18535-3 0  9991
2 60386  88.9850 312.9880 0015735 215.2780 144.7331 13.50959070 49432
